{
  "type": "FeatureCollection",
  "features": [
    {
      "type": "Feature",
      "properties": {
        "norad_id": 32376,
        "name": "COSMO-SKYMED 2",
        "group": "resource",
        "lat": -77.09916503990917,
        "lon": -38.832553774988774,
        "alt_km": 630.7892601677131,
        "timestamp": "2025-12-23T05:02:11.680191+00:00",
        "meta_object_name": "COSMO-SKYMED 2",
        "meta_object_id": "2007-059A",
        "meta_epoch": "2025-12-22T23:00:26.825184",
        "meta_mean_motion": 14.82154722,
        "meta_eccentricity": 0.00013183,
        "meta_inclination": 97.8805,
        "meta_ra_of_asc_node": 178.1286,
        "meta_arg_of_pericenter": 82.8014,
        "meta_mean_anomaly": 277.335,
        "meta_ephemeris_type": 0,
        "meta_classification_type": "U",
        "meta_norad_cat_id": 32376,
        "meta_element_set_no": 999,
        "meta_rev_at_epoch": 97589,
        "meta_bstar": 7.3893972e-05,
        "meta_mean_motion_dot": 5.36e-06,
        "meta_mean_motion_ddot": 0,
        "tle_line1": "1 32376U 07059A   25356.95864381  .00000536  00000+0  73894-4 0  9995",
        "tle_line2": "2 32376  97.8805 178.1286 0001318  82.8014 277.3350 14.82154722975890"
      },
      "geometry": {
        "type": "Point",
        "coordinates": [
          -38.832553774988774,
          -77.09916503990917
        ]
      }
    },
    {
      "type": "Feature",
      "properties": {
        "norad_id": 32382,
        "name": "RADARSAT-2",
        "group": "resource",
        "lat": 44.84644794288272,
        "lon": -6.988434254004225,
        "alt_km": 787.291531119773,
        "timestamp": "2025-12-23T05:02:11.680201+00:00",
        "meta_object_name": "RADARSAT-2",
        "meta_object_id": "2007-061A",
        "meta_epoch": "2025-12-22T23:47:12.016320",
        "meta_mean_motion": 14.29984335,
        "meta_eccentricity": 0.00011135,
        "meta_inclination": 98.5791,
        "meta_ra_of_asc_node": 1.4318,
        "meta_arg_of_pericenter": 84.8723,
        "meta_mean_anomaly": 275.2586,
        "meta_ephemeris_type": 0,
        "meta_classification_type": "U",
        "meta_norad_cat_id": 32382,
        "meta_element_set_no": 999,
        "meta_rev_at_epoch": 94077,
        "meta_bstar": 2.2531011e-05,
        "meta_mean_motion_dot": 1.4e-07,
        "meta_mean_motion_ddot": 0,
        "tle_line1": "1 32382U 07061A   25356.99111130  .00000014  00000+0  22531-4 0  9999",
        "tle_line2": "2 32382  98.5791   1.4318 0001113  84.8723 275.2586 14.29984335940774"
      },
      "geometry": {
        "type": "Point",
        "coordinates": [
          -6.988434254004225,
          44.84644794288272
        ]
      }
    },
    {
      "type": "Feature",
      "properties": {
        "norad_id": 32783,
        "name": "CARTOSAT-2A",
        "group": "resource",
        "lat": -78.4806103036316,
        "lon": 88.91433624904542,
        "alt_km": 635.1599948408448,
        "timestamp": "2025-12-23T05:02:11.680212+00:00",
        "meta_object_name": "CARTOSAT-2A",
        "meta_object_id": "2008-021A",
        "meta_epoch": "2025-12-22T22:54:31.722048",
        "meta_mean_motion": 14.78947209,
        "meta_eccentricity": 0.00111327,
        "meta_inclination": 97.7914,
        "meta_ra_of_asc_node": 46.4586,
        "meta_arg_of_pericenter": 331.1151,
        "meta_mean_anomaly": 28.9443,
        "meta_ephemeris_type": 0,
        "meta_classification_type": "U",
        "meta_norad_cat_id": 32783,
        "meta_element_set_no": 999,
        "meta_rev_at_epoch": 95275,
        "meta_bstar": -9.0979684e-05,
        "meta_mean_motion_dot": -7.22e-06,
        "meta_mean_motion_ddot": 0,
        "tle_line1": "1 32783U 08021A   25356.95453382 -.00000722  00000+0 -90980-4 0  9996",
        "tle_line2": "2 32783  97.7914  46.4586 0011132 331.1151  28.9443 14.78947209952757"
      },
      "geometry": {
        "type": "Point",
        "coordinates": [
          88.91433624904542,
          -78.4806103036316
        ]
      }
    },
    {
      "type": "Feature",
      "properties": {
        "norad_id": 33320,
        "name": "HUANJING 1A (HJ-1A)",
        "group": "resource",
        "lat": -47.72380369099632,
        "lon": -6.422722723765756,
        "alt_km": 616.5578046213514,
        "timestamp": "2025-12-23T05:02:11.680222+00:00",
        "meta_object_name": "HUANJING 1A (HJ-1A)",
        "meta_object_id": "2008-041A",
        "meta_epoch": "2025-12-22T22:46:39.693792",
        "meta_mean_motion": 14.83424951,
        "meta_eccentricity": 0.00193716,
        "meta_inclination": 97.6542,
        "meta_ra_of_asc_node": 344.8211,
        "meta_arg_of_pericenter": 2.1192,
        "meta_mean_anomaly": 358.0101,
        "meta_ephemeris_type": 0,
        "meta_classification_type": "U",
        "meta_norad_cat_id": 33320,
        "meta_element_set_no": 999,
        "meta_rev_at_epoch": 93227,
        "meta_bstar": 0.00018761049,
        "meta_mean_motion_dot": 1.494e-05,
        "meta_mean_motion_ddot": 0,
        "tle_line1": "1 33320U 08041A   25356.94907053  .00001494  00000+0  18761-3 0  9995",
        "tle_line2": "2 33320  97.6542 344.8211 0019371   2.1192 358.0101 14.83424951932277"
      },
      "geometry": {
        "type": "Point",
        "coordinates": [
          -6.422722723765756,
          -47.72380369099632
        ]
      }
    },
    {
      "type": "Feature",
      "properties": {
        "norad_id": 33321,
        "name": "HUANJING 1B (HJ-1B)",
        "group": "resource",
        "lat": 27.8494021141293,
        "lon": 172.8073457083557,
        "alt_km": 627.8572071261924,
        "timestamp": "2025-12-23T05:02:11.680232+00:00",
        "meta_object_name": "HUANJING 1B (HJ-1B)",
        "meta_object_id": "2008-041B",
        "meta_epoch": "2025-12-22T23:29:56.378400",
        "meta_mean_motion": 14.82844247,
        "meta_eccentricity": 0.0037865,
        "meta_inclination": 97.6399,
        "meta_ra_of_asc_node": 348.5201,
        "meta_arg_of_pericenter": 43.2937,
        "meta_mean_anomaly": 317.1241,
        "meta_ephemeris_type": 0,
        "meta_classification_type": "U",
        "meta_norad_cat_id": 33321,
        "meta_element_set_no": 999,
        "meta_rev_at_epoch": 93229,
        "meta_bstar": 7.5562688e-05,
        "meta_mean_motion_dot": 5.67e-06,
        "meta_mean_motion_ddot": 0,
        "tle_line1": "1 33321U 08041B   25356.97912475  .00000567  00000+0  75563-4 0  9997",
        "tle_line2": "2 33321  97.6399 348.5201 0037865  43.2937 317.1241 14.82844247932295"
      },
      "geometry": {
        "type": "Point",
        "coordinates": [
          172.8073457083557,
          27.8494021141293
        ]
      }
    },
    {
      "type": "Feature",
      "properties": {
        "norad_id": 33331,
        "name": "GEOEYE 1",
        "group": "resource",
        "lat": 3.2773607138331036,
        "lon": -111.17324235198966,
        "alt_km": 679.6216735344806,
        "timestamp": "2025-12-23T05:02:11.680243+00:00",
        "meta_object_name": "GEOEYE 1",
        "meta_object_id": "2008-042A",
        "meta_epoch": "2025-12-22T21:40:28.633152",
        "meta_mean_motion": 14.64713402,
        "meta_eccentricity": 0.00029027,
        "meta_inclination": 98.1239,
        "meta_ra_of_asc_node": 68.0553,
        "meta_arg_of_pericenter": 240.584,
        "meta_mean_anomaly": 119.5074,
        "meta_ephemeris_type": 0,
        "meta_classification_type": "U",
        "meta_norad_cat_id": 33331,
        "meta_element_set_no": 999,
        "meta_rev_at_epoch": 92434,
        "meta_bstar": 0.00011695162,
        "meta_mean_motion_dot": 5.75e-06,
        "meta_mean_motion_ddot": 0,
        "tle_line1": "1 33331U 08042A   25356.90310918  .00000575  00000+0  11695-3 0  9990",
        "tle_line2": "2 33331  98.1239  68.0553 0002902 240.5840 119.5074 14.64713402924341"
      },
      "geometry": {
        "type": "Point",
        "coordinates": [
          -111.17324235198966,
          3.2773607138331036
        ]
      }
    },
    {
      "type": "Feature",
      "properties": {
        "norad_id": 33396,
        "name": "THEOS",
        "group": "resource",
        "lat": 25.8643262835337,
        "lon": -120.80979773037019,
        "alt_km": 823.6718874618336,
        "timestamp": "2025-12-23T05:02:11.680254+00:00",
        "meta_object_name": "THEOS",
        "meta_object_id": "2008-049A",
        "meta_epoch": "2025-12-22T23:14:32.148960",
        "meta_mean_motion": 14.20097177,
        "meta_eccentricity": 0.00012201,
        "meta_inclination": 98.5853,
        "meta_ra_of_asc_node": 54.7559,
        "meta_arg_of_pericenter": 93.4739,
        "meta_mean_anomaly": 266.6578,
        "meta_ephemeris_type": 0,
        "meta_classification_type": "U",
        "meta_norad_cat_id": 33396,
        "meta_element_set_no": 999,
        "meta_rev_at_epoch": 89295,
        "meta_bstar": -0.0001241976,
        "meta_mean_motion_dot": -3.07e-06,
        "meta_mean_motion_ddot": 0,
        "tle_line1": "1 33396U 08049A   25356.96842765 -.00000307  00000+0 -12420-3 0  9996",
        "tle_line2": "2 33396  98.5853  54.7559 0001220  93.4739 266.6578 14.20097177892950"
      },
      "geometry": {
        "type": "Point",
        "coordinates": [
          -120.80979773037019,
          25.8643262835337
        ]
      }
    }
  ]
}